[{"OBJECT_NAME":"STARLINK-35707","OBJECT_ID":"2025-265T","EPOCH":"2026-03-09T22:52:31.893888","MEAN_MOTION":15.27597655,"ECCENTRICITY":0.00023383,"INCLINATION":43.0035,"RA_OF_ASC_NODE":276.451,"ARG_OF_PERICENTER":244.6941,"MEAN_ANOMALY":115.3669,"EPHEMERIS_TYPE":0,"CLASSIFICATION_TYPE":"U","NORAD_CAT_ID":66533,"ELEMENT_SET_NO":999,"REV_AT_EPOCH":1715,"BSTAR":0.0012111947,"MEAN_MOTION_DOT":0.00033237,"MEAN_MOTION_DDOT":0},{"OBJECT_NAME":"CZ-6A DEB","OBJECT_ID":"2023-168D","EPOCH":"2026-03-09T19:03:52.964928","MEAN_MOTION":15.28240044,"ECCENTRICITY":0.00013417,"INCLINATION":97.7802,"RA_OF_ASC_NODE":98.3362,"ARG_OF_PERICENTER":174.0661,"MEAN_ANOMALY":186.0594,"EPHEMERIS_TYPE":0,"CLASSIFICATION_TYPE":"U","NORAD_CAT_ID":58202,"ELEMENT_SET_NO":999,"REV_AT_EPOCH":12922,"BSTAR":0.0014474773,"MEAN_MOTION_DOT":0.00039923,"MEAN_MOTION_DDOT":0}]
